#dP2024 10 30  0  0  0.00000000      96 __u+U IGS20 FIT  IAC
## 2338 259200.00000000   900.00000000 60613 0.0000000000000
+  131   C01C02C03C04C05C06C07C08C09C10C11C12C13C14C16C19C20
+        C21C22C23C24C25C26C27C28C29C30C32C33C34C35C36C37C38
+        C39C40C41C42C43C44C45C59C60C62E02E03E04E05E06E07E08
+        E09E10E11E12E13E14E15E18E19E21E24E25E26E27E29E30E31
+        E33E34E36G02G03G04G05G06G07G08G09G10G11G12G13G14G15
+        G16G17G18G19G20G21G22G23G24G25G26G27G28G29G30G31G32
+        J03J04J07R01R02R03R04R05R06R07R08R09R10R11R12R13R14
+        R15R16R17R18R19R20R21R22R23R24R25R26  0  0  0  0  0
++         0  0  0  0  0  0  0  0  0  0  0  0  0  0  0  0  0
++         0  0  0  0  0  0  0  0  0  0  0  0  0  0  0  0  0
++         0  0  0  0  0  0  0  0  0  0  0  0  0  0  0  0  0
++         0  0  0  0  0  0  0  0  0  0  0  0  0  0  0  0  0
++         0  0  0  0  0  0  0  0  0  0  0  0  0  0  0  0  0
++         0  0  0  0  0  0  0  0  0  0  0  0  0  0  0  0  0
++         0  0  0  0  0  0  0  0  0  0  0  0  0  0  0  0  0
++         0  0  0  0  0  0  0  0  0  0  0  0  0  0  0  0  0
%c M  cc GPS ccc cccc cccc cccc cccc ccccc ccccc ccccc ccccc
%c cc cc ccc ccc cccc cccc cccc cccc ccccc ccccc ccccc ccccc
%f  0.0000000  0.000000000  0.00000000000  0.000000000000000
%f  0.0000000  0.000000000  0.00000000000  0.000000000000000
%i    0    0    0    0      0      0      0      0         0
%i    0    0    0    0      0      0      0      0         0
/* INFORMATION & ANALYSIS CENTER (IAC)            RAPID DATA
/* S/V CLOCKS ARE ALIGNED TO GNSS TIME                      
/* G:C1WC2W R:C1PC2P E:C1XC5X C:C2IC6I J:C1CC2S             
/* PCV:IGS20_2317 OL/AL:FES2004  NONE     YN ORB:CoN CLK:CoN
*  2024 10 30 23 30  0.00000000
PC01 -34286.744803  24503.259631   1286.084734 999999.999999
PC02   4339.213375  41927.631293   1272.067472 999999.999999
PC03 -14788.722015  39470.432853   1198.857497 999999.999999
PC04 -39555.754332  14469.587072   1337.102656 999999.999999
PC05  21925.512928  36054.905385    524.911186 999999.999999
PC06 -17671.144431  34257.077017 -17322.111022    382.722656
PC07  -3787.376661  36615.579026 -20239.883980   -244.766715
PC08  -7557.225294  18749.538485  36981.193406   -726.905262
PC09 -13160.241174  32991.906843 -22706.649355   -557.343721
PC10   2638.764023  38934.114608 -14854.178326   -256.640905
PC11   3557.809848  21621.315701  17350.608471    219.324651
PC12 -10041.564614  26028.167201    580.969983   -254.046000
PC13    328.743980  21925.425030  36208.416471     92.872239
PC14  14433.559886  23220.664374   5451.940476   -372.383460
PC16 -21911.947237  33709.423451 -12990.588690    141.109330
PC19 -19487.295079 -19621.783473   3830.463569   -956.850125
PC20  -8533.710388 -23494.511297 -12433.189993   -919.558062
PC21  -8857.896391  13373.340614  22836.399168   -918.035821
PC22 -20004.483984  -4289.486425  18972.868879    166.299162
PC23  27605.736698  -2110.905514  -3544.747814   -872.157429
PC24  -1791.194976  16671.396382 -22322.439207    782.408964
PC25  18437.326826   9952.151076 -18458.822020    547.543965
PC26 -20309.351692  13725.175646 -13326.673547   -370.325913
PC27  14703.587622 -22196.022280   8339.815202    389.652119
PC28  17961.570864  -7849.505597  19873.913026    302.946499
PC29 -10707.322072 -14922.293280 -21010.610436    355.710295
PC30   3067.096009 -26609.314429  -7803.365427     14.085792
PC32   8846.633638 -13358.558183 -22843.528246   -785.399488
PC33  19568.576103  19539.255197  -3709.664354   -953.849878
PC34  -1779.133239  26233.699753   9362.300070    553.848771
PC35 -17710.029241   7798.799378 -20128.143413    221.223781
PC36 -18568.166719 -10128.538988  18213.152749    212.669247
PC37  20822.170803 -13175.426300  13134.060570   -892.875686
PC38 -15983.113519  18686.040359  34278.683507    188.381855
PC39 -22768.821185  34533.767045  -8791.975362    -10.235470
PC40  -7912.595616  33596.832463 -23978.378634    -99.739987
PC41  20335.870806   5132.593728 -18356.440989   -893.779008
PC42   6940.169140  23134.145256  13989.006451   -504.616570
PC43  10201.921092  15891.261544  20544.333177     90.663456
PC44 -13949.234937  22655.290466  -8473.467224    638.060594
PC45 -27545.259013   1654.378431   4046.768924   -158.082141
PC59 -32252.663692  27096.783244   1696.733312 999999.999999
PC60   7328.161002  41495.781050   1787.060040 999999.999999
PC62 -39595.485446  14369.578540  -1320.696899 999999.999999
PE02   6391.275938  19494.417395 -21348.472189    171.030521
PE03   2130.804399  29515.787240    394.827041   -150.323157
PE04 -13648.476560 -19845.646077  17203.907013    -70.298557
PE05 -10382.077208  21604.610341  17361.856013   4797.527147
PE06 -16638.148297  -9936.435791  22351.103049    -42.051586
PE07  16927.330421   -645.541637 -24277.531896   -150.212201
PE08  13225.227629  20521.338643 -16740.446162   -360.031299
PE09 -16787.862776    519.044165  24365.755211   -645.517332
PE10 -21710.560158   -751.354012 -20098.651686   -666.683412
PE11 -25749.590039   8023.374708 -12204.300221   1012.540742
PE12 -15146.736935  -8433.398769 -23990.707947  -1274.261883
PE13  25616.778055  -7601.803476  12745.037838    -26.294040
PE14 -17246.784084   7403.700299 -20945.543659    336.633245
PE15  14490.801726   8932.532358  24227.322823   -136.240780
PE18   9205.417117 -25034.771316  13095.071219    718.132927
PE19   -712.126047 -29507.817460  -2208.088881    859.194697
PE21  14053.214743 -11281.969868  23482.783872   -625.520146
PE24 -26876.018799  -3915.056077 -11755.940402  -1072.388418
PE25 -14465.049847  10991.708319 -23362.524660     10.708980
PE26  21253.793491 -19591.052680  -6386.402239   -225.570167
PE27  26872.983503   3822.241848  11824.322487   -491.549602
PE29  10352.791473 -21890.193549 -17025.420636    -41.829150
PE30  23668.449485  16529.224502  -6587.047416   -874.550474
PE31 -23667.597352 -16477.414983   6664.351934    -41.163824
PE33   5427.738459 -20080.864470 -21054.959599     15.990880
PE34  -4914.808324  19958.523132  21296.297340   -143.116293
PE36 -21575.383920  19375.004503   5950.158592   -304.399620
PG02  11852.093831 -20982.476218 -10291.585556   -325.445522
PG03    528.999111 -15335.956330 -21858.266599    586.133933
PG04   1169.758497 -25780.017183  -5929.005247    471.066137
PG05 -16919.225251   7759.862604  18792.842167   -191.479178
PG06 -19886.522230    728.905256 -17576.850205    -77.705780
PG07  -4363.707659 -15933.270778  21247.068044    -23.400214
PG08   7927.944033 -19390.813434  15943.591228    399.980414
PG09  -6914.669250 -25365.977403   3411.665965    421.998925
PG10  24501.184327  10669.375967   1362.787303   -177.653560
PG11 -23064.744290  11720.333822  -5817.127096   -747.555650
PG12  -5907.224114  14153.305487 -21968.387045   -548.795226
PG13 -13228.527257  11754.031979  19496.613416    683.904543
PG14 -22755.382007 -13153.735822   4653.463664    529.240195
PG15  -5054.433360  20806.977376  15095.530109    221.994862
PG16  21003.384416  -2088.974597  16045.863380   -141.017881
PG17 -13000.510291 -15436.820001 -16747.947835    576.785420
PG18   5256.181087  14478.190387  21638.602755   -659.491355
PG19 -15039.925974  -5763.216877 -21335.722848    556.960238
PG20 -24370.631250   2494.847008  10149.838315    369.178213
PG21  15859.520256 -19910.720327  -4816.192775     98.586658
PG22 -24297.261771  -9667.509001  -3176.732862    -75.540231
PG23  16742.024207  15711.427774  13583.224595    352.979494
PG24 -12287.092414  21575.847101  -9297.685814   -482.725789
PG25   8945.115954  17379.384264 -18448.491674    499.300225
PG26  25930.170885   3438.248166   5501.531576     42.283453
PG27  13420.509588  -8640.213302  20859.726540    -34.733212
PG28  18900.434958   1025.315688 -18649.718914   -463.455514
PG29   3612.196396  26129.500490   2430.287795   -567.446618
PG30 -14465.766316  -8172.815056  20914.879791   -291.823876
PG31  23236.092458  -8281.147372 -10562.972823   -222.571513
PG32  14719.779965  12697.149343 -17973.258002   -580.219472
PJ03 -28657.063507  30993.630040   3853.681690     -5.639268
PJ04 -26179.242456  25794.994437  26419.312686     21.807537
PJ07 -25384.962218  33660.736732     -0.299625 999999.999999
PR01 -15706.559862 -18016.456414   8911.703690    102.810302
PR02 -13488.958845  -4089.105679  21279.826655    -25.437998
PR03  -4319.079575  12966.555181  21594.067749    110.433765
PR04   6803.246196  22364.842180  10259.200898    261.722578
PR05  14323.036741  20071.751673  -6588.634968    139.956063
PR06  13327.448074   2240.834275 -21656.137028   -186.878930
PR07   4048.640315 -13251.572263 -21367.295221     94.005533
PR08  -7154.350410 -22343.406906  -9905.471814     -6.353541
PR09  25384.521561  -1312.492317   1539.282193    217.750684
PR10  18886.754818  -7479.557659  15470.977029   -237.511520
PR11    951.895805 -10925.009138  23039.095917      7.997779
PR12 -18903.630411  -7525.325246  15398.807728     46.663470
PR13 -25478.084474   -424.901928   1091.320860    -52.977290
PR14 -17170.857243   8255.041203 -16961.465117     27.142157
PR15    934.008971  11044.850462 -22956.415730     74.554340
PR16  18787.491061   7411.681290 -15550.546270     30.382486
PR17 -14479.492179  20629.169111  -3746.553904    135.514088
PR18  -6643.955908  21320.865327  12387.100643    169.489374
PR19   3138.444128  12892.694642  21789.155164   -296.752935
PR20  15049.030818  -6846.112463  19427.740778   -121.221663
PR21  14948.307898 -20151.388065   4704.271286   -147.226060
PR22   6138.649674 -20891.847478 -13250.404238      5.021278
PR23  -5379.903062 -10555.450345 -22590.070430   -137.116604
PR24 -15172.780143   7849.236416 -18908.935372    -78.148561
PR25  15189.184517 -20236.639257   3351.730744    -85.514309
PR26  -6231.101955 -21907.250068 -11485.359759   -501.263027
EOF
